GIOVE-A                 
1 28922U 05051A   09078.22575076 -.00000008  00000-0  10000-3 0  4631
2 28922  56.0635 159.7393 0007094 333.6150  26.3931  1.70191053 20034
GIOVE-B                 
1 32781U 08020A   09078.46900970 -.00000008  00000-0  10000-3 0  1445
2 32781  55.9561 194.6583 0018217 208.0899 151.7923  1.70950596  5594
